{
    "links": {
        "self": "http://www.neowsapp.com/rest/v1/neo/3797690?api_key=iIulBulltgU6a56xZRHN4H3l9WmuAYTsLGpBGhQ2"
    },
    "id": "3797690",
    "neo_reference_id": "3797690",
    "name": "(2018 AF12)",
    "designation": "2018 AF12",
    "nasa_jpl_url": "http://ssd.jpl.nasa.gov/sbdb.cgi?sstr=3797690",
    "absolute_magnitude_h": 21.7,
    "estimated_diameter": {
        "kilometers": {
            "estimated_diameter_min": 0.1214940408,
            "estimated_diameter_max": 0.2716689341
        },
        "meters": {
            "estimated_diameter_min": 121.4940407996,
            "estimated_diameter_max": 271.6689340891
        },
        "miles": {
            "estimated_diameter_min": 0.0754928736,
            "estimated_diameter_max": 0.1688071972
        },
        "feet": {
            "estimated_diameter_min": 398.6025088171,
            "estimated_diameter_max": 891.3023057169
        }
    },
    "is_potentially_hazardous_asteroid": false,
    "close_approach_data": [
        {
            "close_approach_date": "2010-04-21",
            "close_approach_date_full": "2010-Apr-21 21:10",
            "epoch_date_close_approach": 1271884200000,
            "relative_velocity": {
                "kilometers_per_second": "27.5727143894",
                "kilometers_per_hour": "99261.7718018684",
                "miles_per_hour": "61677.4048176665"
            },
            "miss_distance": {
                "astronomical": "0.1054417679",
                "lunar": "41.0168477131",
                "kilometers": "15773863.886874373",
                "miles": "9801424.5212094274"
            },
            "orbiting_body": "Venus"
        },
        {
            "close_approach_date": "2016-01-22",
            "close_approach_date_full": "2016-Jan-22 10:29",
            "epoch_date_close_approach": 1453458540000,
            "relative_velocity": {
                "kilometers_per_second": "32.9139217826",
                "kilometers_per_hour": "118490.1184174021",
                "miles_per_hour": "73625.1516355241"
            },
            "miss_distance": {
                "astronomical": "0.2934685355",
                "lunar": "114.1592603095",
                "kilometers": "43902267.822819385",
                "miles": "27279604.253042113"
            },
            "orbiting_body": "Earth"
        },
        {
            "close_approach_date": "2017-12-28",
            "close_approach_date_full": "2017-Dec-28 21:04",
            "epoch_date_close_approach": 1514495040000,
            "relative_velocity": {
                "kilometers_per_second": "15.7495357588",
                "kilometers_per_hour": "56698.3287315522",
                "miles_per_hour": "35230.1365387803"
            },
            "miss_distance": {
                "astronomical": "0.3134572524",
                "lunar": "121.9348711836",
                "kilometers": "46892537.295092388",
                "miles": "29137671.5433874344"
            },
            "orbiting_body": "Earth"
        },
        {
            "close_approach_date": "2023-06-08",
            "close_approach_date_full": "2023-Jun-08 13:13",
            "epoch_date_close_approach": 1686229980000,
            "relative_velocity": {
                "kilometers_per_second": "20.5258251772",
                "kilometers_per_hour": "73892.9706378584",
                "miles_per_hour": "45914.2183388404"
            },
            "miss_distance": {
                "astronomical": "0.2352681823",
                "lunar": "91.5193229147",
                "kilometers": "35195618.950851701",
                "miles": "21869543.5118514338"
            },
            "orbiting_body": "Earth"
        },
        {
            "close_approach_date": "2025-05-08",
            "close_approach_date_full": "2025-May-08 21:30",
            "epoch_date_close_approach": 1746739800000,
            "relative_velocity": {
                "kilometers_per_second": "37.1196308387",
                "kilometers_per_hour": "133630.6710192761",
                "miles_per_hour": "83032.9022230607"
            },
            "miss_distance": {
                "astronomical": "0.4732646879",
                "lunar": "184.0999635931",
                "kilometers": "70799389.256054773",
                "miles": "43992700.5150829474"
            },
            "orbiting_body": "Earth"
        }
    ],
    "orbital_data": {
        "orbit_id": "5",
        "orbit_determination_date": "2018-02-21 06:22:40",
        "first_observation_date": "2018-01-14",
        "last_observation_date": "2018-02-13",
        "data_arc_in_days": 30,
        "observations_used": 39,
        "orbit_uncertainty": "7",
        "minimum_orbit_intersection": ".0761089",
        "jupiter_tisserand_invariant": "4.123",
        "epoch_osculation": "2459000.5",
        "eccentricity": ".7177157334424664",
        "semi_major_axis": "1.536733915861896",
        "inclination": "13.05016137611035",
        "ascending_node_longitude": "307.9871815614337",
        "orbital_period": "695.8192530160109",
        "perihelion_distance": ".4337958063331619",
        "perihelion_argument": "49.85248157727708",
        "aphelion_distance": "2.639672025390631",
        "perihelion_time": "2458758.161994412009",
        "mean_anomaly": "125.3798046454303",
        "mean_motion": ".517375738655677",
        "equinox": "J2000",
        "orbit_class": {
            "orbit_class_type": "APO",
            "orbit_class_description": "Near-Earth asteroid orbits which cross the Earth’s orbit similar to that of 1862 Apollo",
            "orbit_class_range": "a (semi-major axis) > 1.0 AU; q (perihelion) < 1.017 AU"
        }
    },
    "is_sentry_object": false
}